[{"OBJECT_NAME":"MESON-1","OBJECT_ID":"2024-043AK","EPOCH":"2026-03-09T21:36:16.481664","MEAN_MOTION":15.29893494,"ECCENTRICITY":0.00095452,"INCLINATION":97.5469,"RA_OF_ASC_NODE":205.2839,"ARG_OF_PERICENTER":227.1432,"MEAN_ANOMALY":132.9007,"EPHEMERIS_TYPE":0,"CLASSIFICATION_TYPE":"U","NORAD_CAT_ID":59131,"ELEMENT_SET_NO":999,"REV_AT_EPOCH":11189,"BSTAR":0.0002974823,"MEAN_MOTION_DOT":8.544e-5,"MEAN_MOTION_DDOT":0},{"OBJECT_NAME":"STARLINK-32728","OBJECT_ID":"2025-029A","EPOCH":"2026-03-09T17:01:06.881952","MEAN_MOTION":15.30198454,"ECCENTRICITY":7.776e-5,"INCLINATION":53.1601,"RA_OF_ASC_NODE":230.0213,"ARG_OF_PERICENTER":36.0125,"MEAN_ANOMALY":324.0928,"EPHEMERIS_TYPE":0,"CLASSIFICATION_TYPE":"U","NORAD_CAT_ID":62948,"ELEMENT_SET_NO":999,"REV_AT_EPOCH":6139,"BSTAR":0.00075755201,"MEAN_MOTION_DOT":0.00022143,"MEAN_MOTION_DDOT":0}]
